#   ------------------ Verification test cases ----------------------
#                       # TEME example
1 29107U 06016A   10077.87876901  .00000101  00000-0  32509-4 0  2294
2 29107 098.1890 022.8988 0001122 092.7286 267.4066 14.57118139206877